     3.03           N                   G                   RINEX VERSION / TYPE
NAS Convert 1.14.0  NovAtel             20230714 205941 UTC PGM / RUN BY / DATE 
                                                            COMMENT             
GPSA    .1676D-07   .2235D-07  -.1192D-06  -.5960D-07       IONOSPHERIC CORR    
GPSB    .1270D+06   .1638D+06  -.1966D+06  -.2621D+06       IONOSPHERIC CORR    
GPUT  -.4656612873D-08 -.159872116D-13  61440 2271          TIME SYSTEM CORR    
    18    18  2185     7GPS                                 LEAP SECONDS        
                                                            END OF HEADER       
G30 2023 06 09 16 00 00 -.512104947120D-03  .238742359215D-11  .000000000000D+00
      .130000000000D+02  .294375000000D+02  .509699802471D-08  .595763066895D+00
      .159442424774D-05  .654654123355D-02  .877119600773D-05  .515358142662D+04
      .489600000000D+06 -.100582838058D-06 -.100910252999D+01  .251457095146D-06
      .935207598807D+00  .198218750000D+03 -.257511772890D+01 -.829355974577D-08
      .410017078857D-09  .100000000000D+01  .226500000000D+04  .000000000000D+00
      .200000000000D+01  .000000000000D+00  .372529029846D-08  .130000000000D+02
      .482430000000D+06  .000000000000D+00                                                                         
G31 2023 06 07 08 00 00 -.217658001930D-03 -.795807864051D-12  .000000000000D+00
      .910000000000D+02  .281250000000D+00  .527307678767D-08  .178245341379D+01
      .128522515297D-06  .103311301209D-01  .633485615253D-05  .515356041527D+04
      .288000000000D+06 -.223517417908D-06 -.993323110843D+00  .163912773132D-06
      .954104765562D+00  .257781250000D+03  .541852180375D+00 -.821069915143D-08
      .104290058385D-09  .100000000000D+01  .226500000000D+04  .000000000000D+00
      .200000000000D+01  .000000000000D+00 -.135041773319D-07  .910000000000D+02
      .281490000000D+06  .000000000000D+00                                                                         
G32 2023 06 07 08 00 00 -.494663137943D-03 -.864019966684D-11  .000000000000D+00
      .940000000000D+02 -.491250000000D+02  .447554356721D-08 -.101953381030D+00
     -.257603824139D-05  .693903292995D-02  .110361725092D-04  .515375545883D+04
      .288000000000D+06 -.577419996262D-07 -.207230400024D+01  .124797224998D-06
      .959591678274D+00  .170375000000D+03 -.220170335998D+01 -.789711466081D-08
      .667884962947D-09  .100000000000D+01  .226500000000D+04  .000000000000D+00
      .200000000000D+01  .000000000000D+00  .465661287308D-09  .940000000000D+02
      .280800000000D+06  .000000000000D+00                                                                         
G27 2023 07 14 22 00 00 -.314787030220D-05 -.761701812735D-11  .000000000000D+00
      .101000000000D+03  .129687500000D+03  .419303179946D-08  .167468340318D+01
      .656209886074D-05  .115365000675D-01  .495091080666D-05  .515367281342D+04
      .511200000000D+06 -.223517417908D-06  .446077059346D+00 -.130385160446D-07
      .967175366599D+00  .286781250000D+03  .743785381098D+00 -.811248077453D-08
      .169649923743D-09  .100000000000D+01  .227000000000D+04  .000000000000D+00
      .200000000000D+01  .000000000000D+00  .186264514923D-08  .101000000000D+03
      .505890000000D+06  .000000000000D+00                                                                         
